NORAD_CAT_ID,OBJECT_NAME,OBJECT_TYPE,EPOCH,MEAN_MOTION,ECCENTRICITY,INCLINATION,RA_OF_ASC_NODE,ARG_OF_PERICENTER,MEAN_ANOMALY,BSTAR,MEAN_MOTION_DOT,MEAN_MOTION_DDOT,TLE_LINE0,TLE_LINE1,TLE_LINE2,SEMIMAJOR_AXIS,PERIOD,APOGEE,PERIGEE,DECAYED
49155.0,STARLINK-3060,PAYLOAD,2022-06-27 21:34:58,14.96713588,0.0003099,69.9974,59.6251,269.3907,90.6896,-2.8688e-05,-4.2e-06,0.0,0 STARLINK-3060,1 49155U 21082AB  22178.89929257 -.00000420  00000-0 -28688-4 0  9992,2 49155  69.9974  59.6251 0003099 269.3907  90.6896 14.96713588 45723,6955.196,96.211,579.216,574.906,0.0
49155.0,STARLINK-3060,PAYLOAD,2022-06-28 08:48:38,14.96711577,0.0003053,69.9973,58.4482,269.3689,90.712,4.3268e-05,4.04e-06,0.0,0 STARLINK-3060,1 49155U 21082AB  22179.36711729  .00000404  00000-0  43268-4 0  9999,2 49155  69.9973  58.4482 0003053 269.3689  90.7120 14.96711577 45796,6955.2019999999975,96.211,579.191,574.944,0.0
49155.0,STARLINK-3060,PAYLOAD,2022-06-28 21:38:33,14.96716467,0.0003005,69.9974,57.1035,269.1888,90.8926,-6.6339e-06,-1.68e-06,0.0,0 STARLINK-3060,1 49155U 21082AB  22179.90177152 -.00000168  00000-0 -66339-5 0  9999,2 49155  69.9974  57.1035 0003005 269.1888  90.8926 14.96716467 45870,6955.187,96.211,579.1419999999998,574.962,0.0
49155.0,STARLINK-3060,PAYLOAD,2022-06-29 08:52:12,14.96718306,0.000296,69.9974,55.9269,268.7682,91.3137,1.7477e-05,1.08e-06,0.0,0 STARLINK-3060,1 49155U 21082AB  22180.36959325  .00000108  00000-0  17477-4 0  9991,2 49155  69.9974  55.9269 0002960 268.7682  91.3137 14.96718306 45943,6955.181,96.21,579.105,574.988,0.0
49155.0,STARLINK-3060,PAYLOAD,2022-06-29 21:42:06,14.96716035,0.0002968,69.9972,54.582,268.2663,91.8156,0.00011966,1.278e-05,0.0,0 STARLINK-3060,1 49155U 21082AB  22180.90424751  .00001278  00000-0  11966-3 0  9996,2 49155  69.9972  54.5820 0002968 268.2663  91.8156 14.96716035 46024,6955.188,96.211,579.118,574.989,0.0
49155.0,STARLINK-3060,PAYLOAD,2022-06-30 08:55:46,14.9671893,0.0002937,69.9973,53.4052,268.1953,91.8869,0.00012294,1.316e-05,0.0,0 STARLINK-3060,1 49155U 21082AB  22181.37206859  .00001316  00000-0  12294-3 0  9993,2 49155  69.9973  53.4052 0002937 268.1953  91.8869 14.96718930 46091,6955.179,96.21,579.087,575.002,0.0
49155.0,STARLINK-3060,PAYLOAD,2022-06-30 20:09:26,14.96721962,0.0002926,69.9973,52.2285,267.9715,92.1108,0.00010409,1.1e-05,0.0,0 STARLINK-3060,1 49155U 21082AB  22181.83988931  .00001100  00000-0  10409-3 0  9999,2 49155  69.9973  52.2285 0002926 267.9715  92.1108 14.96721962 46164,6955.17,96.21,579.07,575.0,0.0
49155.0,STARLINK-3060,PAYLOAD,2022-07-01 13:48:02,14.96726614,0.000291,69.9974,50.3793,267.795,92.2875,0.00010315,1.09e-05,0.0,0 STARLINK-3060,1 49155U 21082AB  22182.57503376  .00001090  00000-0  10315-3 0  9991,2 49155  69.9974  50.3793 0002910 267.7950  92.2875 14.96726614 46273,6955.156,96.21,579.045,574.997,0.0
49155.0,STARLINK-3060,PAYLOAD,2022-07-01 21:49:13,14.96729235,0.0002905,69.9974,49.5386,267.4648,92.6178,9.3659e-05,9.81e-06,0.0,0 STARLINK-3060,1 49155U 21082AB  22182.90918948  .00000981  00000-0  93659-4 0  9994,2 49155  69.9974  49.5386 0002905 267.4648  92.6178 14.96729235 46324,6955.148,96.21,579.033,574.992,0.0
49155.0,STARLINK-3060,PAYLOAD,2022-07-02 13:51:35,14.9673579,0.0002911,69.9973,47.8573,267.6973,92.3851,0.00011554,1.232e-05,0.0,0 STARLINK-3060,1 49155U 21082AB  22183.57749780  .00001232  00000-0  11554-3 0  9997,2 49155  69.9973  47.8573 0002911 267.6973  92.3851 14.96735790 46421,6955.127,96.209,579.0169999999998,574.9680000000002,0.0
49155.0,STARLINK-3060,PAYLOAD,2022-07-02 15:27:50,14.96735881,0.0002909,69.9972,47.6892,267.6968,92.3857,0.00011489,1.224e-05,0.0,0 STARLINK-3060,1 49155U 21082AB  22183.64432889  .00001224  00000-0  11489-3 0  9992,2 49155  69.9972  47.6892 0002909 267.6968  92.3857 14.96735881 46431,6955.127,96.209,579.015,574.969,0.0
49155.0,STARLINK-3060,PAYLOAD,2022-07-03 07:30:11,14.96748165,0.0002942,69.9971,46.0076,268.4733,91.6088,-1.2455e-05,-2.34e-06,0.0,0 STARLINK-3060,1 49155U 21082AB  22184.31263344 -.00000234  00000-0 -12455-4 0  9992,2 49155  69.9971  46.0076 0002942 268.4733  91.6088 14.96748165 46531,6955.089,96.209,579.0,574.908,0.0
49155.0,STARLINK-3060,PAYLOAD,2022-07-03 21:56:19,14.9674533,0.0002831,69.9969,44.4944,267.8022,92.2812,0.00014581,1.579e-05,0.0,0 STARLINK-3060,1 49155U 21082AB  22184.91411023  .00001579  00000-0  14581-3 0  9999,2 49155  69.9969  44.4944 0002831 267.8022  92.2812 14.96745330 46628,6955.098000000001,96.209,578.932,574.994,0.0
49155.0,STARLINK-3060,PAYLOAD,2022-07-04 07:33:43,14.96749018,0.0002833999999999,69.9968,43.4855,267.5953,92.488,0.00015941,1.735e-05,0.0,0 STARLINK-3060,1 49155U 21082AB  22185.31509212  .00001735  00000-0  15941-3 0  9997,2 49155  69.9968  43.4855 0002834 267.5953  92.4880 14.96749018 46680,6955.0859999999975,96.209,578.922,574.98,0.0
49155.0,STARLINK-3060,PAYLOAD,2022-07-04 21:59:51,14.96754409,0.0002848,69.9965,41.9723,266.5958,93.4875,0.00016297,1.776e-05,0.0,0 STARLINK-3060,1 49155U 21082AB  22185.91656276  .00001776  00000-0  16297-3 0  9996,2 49155  69.9965  41.9723 0002848 266.5958  93.4875 14.96754409 46778,6955.07,96.208,578.915,574.9540000000002,0.0
49155.0,STARLINK-3060,PAYLOAD,2022-07-05 14:02:12,14.96759873,0.0002833,69.9965,40.291,266.0899,93.9935,0.00016884,1.844e-05,0.0,0 STARLINK-3060,1 49155U 21082AB  22186.58486193  .00001844  00000-0  16884-3 0  9997,2 49155  69.9965  40.2910 0002833 266.0899  93.9935 14.96759873 46874,6955.053000000001,96.208,578.888,574.947,0.0
49155.0,STARLINK-3060,PAYLOAD,2022-07-05 20:27:08,14.96762029,0.0002837,69.9965,39.6184,266.1389,93.9445,0.00018459,2.024e-05,0.0,0 STARLINK-3060,1 49155U 21082AB  22186.85218101  .00002024  00000-0  18459-3 0  9990,2 49155  69.9965  39.6184 0002837 266.1389  93.9445 14.96762029 46916,6955.045999999999,96.208,578.884,574.938,0.0
49155.0,STARLINK-3060,PAYLOAD,2022-07-06 14:05:43,14.96769472,0.0002785,69.9967,37.7692,264.9336,95.1504,0.00020207,2.225e-05,0.0,0 STARLINK-3060,1 49155U 21082AB  22187.58730573  .00002225  00000-0  20207-3 0  9990,2 49155  69.9967  37.7692 0002785 264.9336  95.1504 14.96769472 47023,6955.023,96.207,578.825,574.951,0.0
49155.0,STARLINK-3060,PAYLOAD,2022-07-06 20:30:39,14.96770534,0.0002793,69.9966,37.0967,264.7737,95.3103,0.00021863,2.415e-05,0.0,0 STARLINK-3060,1 49155U 21082AB  22187.85462394  .00002415  00000-0  21863-3 0  9993,2 49155  69.9966  37.0967 0002793 264.7737  95.3103 14.96770534 47064,6955.02,96.207,578.827,574.942,0.0
49155.0,STARLINK-3060,PAYLOAD,2022-07-06 23:43:07,14.96771887,0.0002787,69.9967,36.7604,264.8264,95.2576,0.00023487,2.601e-05,0.0,0 STARLINK-3060,1 49155U 21082AB  22187.98828267  .00002601  00000-0  23487-3 0  9993,2 49155  69.9967  36.7604 0002787 264.8264  95.2576 14.96771887 47085,6955.015,96.207,578.819,574.942,0.0
49155.0,STARLINK-3060,PAYLOAD,2022-07-07 14:09:14,14.96777016,0.0002812,69.9965,35.2474,264.8127,95.271,0.00022373,2.474e-05,0.0,0 STARLINK-3060,1 49155U 21082AB  22188.58974594  .00002474  00000-0  22373-3 0  9996,2 49155  69.9965  35.2474 0002812 264.8127  95.2710 14.96777016 47179,6955.0,96.207,578.82,574.909,0.0
49155.0,STARLINK-3060,PAYLOAD,2022-07-07 20:34:10,14.96781223,0.0002794,69.9966,34.5743,263.959,96.125,0.00026985,3.003e-05,0.0,0 STARLINK-3060,1 49155U 21082AB  22188.85706116  .00003003  00000-0  26985-3 0  9991,2 49155  69.9966  34.5743 0002794 263.9590  96.1250 14.96781223 47213,6954.986,96.206,578.795,574.908,0.0
49155.0,STARLINK-3060,PAYLOAD,2022-07-07 23:46:38,14.96783197,0.0002777,69.9982,34.2381,264.726,95.3581,0.00033354,3.735e-05,0.0,0 STARLINK-3060,1 49155U 21082AB  22188.99071983  .00003735  00000-0  33354-3 0  9993,2 49155  69.9982  34.2381 0002777 264.7260  95.3581 14.96783197 47232,6954.98,96.206,578.7769999999998,574.914,0.0
49155.0,STARLINK-3060,PAYLOAD,2022-07-08 20:37:40,14.96792294,0.0002825,69.9985,32.0531,265.6846,94.399,0.00037796,4.245e-05,0.0,0 STARLINK-3060,1 49155U 21082AB  22189.85949211  .00004245  00000-0  37796-3 0  9998,2 49155  69.9985  32.0531 0002825 265.6846  94.3990 14.96792294 47367,6954.9519999999975,96.206,578.7819999999998,574.852,0.0
49155.0,STARLINK-3060,PAYLOAD,2022-07-08 23:50:08,14.96794181,0.0002797,69.9986,31.7169,265.1326,94.9513,0.00039367,4.426e-05,0.0,0 STARLINK-3060,1 49155U 21082AB  22189.99314881  .00004426  00000-0  39367-3 0  9999,2 49155  69.9986  31.7169 0002797 265.1326  94.9513 14.96794181 47383,6954.946,96.206,578.757,574.866,0.0
49155.0,STARLINK-3060,PAYLOAD,2022-07-09 12:39:59,14.96798447,0.0002739,69.9985,30.3726,260.3304,99.7545,0.00035423,3.974e-05,0.0,0 STARLINK-3060,1 49155U 21082AB  22190.52777522  .00003974  00000-0  35423-3 0  9991,2 49155  69.9985  30.3726 0002739 260.3304  99.7545 14.96798447 47461,6954.933000000001,96.205,578.703,574.893,0.0
49155.0,STARLINK-3060,PAYLOAD,2022-07-09 15:52:27,14.96801324,0.0002736,69.9987,30.0364,260.2913,99.7936,0.00037378,4.198e-05,0.0,0 STARLINK-3060,1 49155U 21082AB  22190.66143084  .00004198  00000-0  37378-3 0  9996,2 49155  69.9987  30.0364 0002736 260.2913  99.7936 14.96801324 47485,6954.924,96.205,578.692,574.886,0.0
49155.0,STARLINK-3060,PAYLOAD,2022-07-09 23:53:37,14.96803764,0.0002742,69.9986,29.1958,260.4529,99.632,0.0003404,3.815e-05,0.0,0 STARLINK-3060,1 49155U 21082AB  22190.99557131  .00003815  00000-0  34040-3 0  9992,2 49155  69.9986  29.1958 0002742 260.4529  99.6320 14.96803764 47536,6954.917,96.205,578.689,574.875,0.0
49155.0,STARLINK-3060,PAYLOAD,2022-07-10 12:43:28,14.96809596,0.000271,69.9988,27.8511,261.5295,98.5556,0.00038574,4.337e-05,0.0,0 STARLINK-3060,1 49155U 21082AB  22191.53019405  .00004337  00000-0  38574-3 0  9996,2 49155  69.9988  27.8511 0002710 261.5295  98.5556 14.96809596 47612,6954.899,96.205,578.648,574.879,0.0
49155.0,STARLINK-3060,PAYLOAD,2022-07-10 19:08:24,14.96812254,0.0002732,69.9987,27.1786,260.8676,99.2173,0.0004041,4.548e-05,0.0,0 STARLINK-3060,1 49155U 21082AB  22191.79750488  .00004548  00000-0  40410-3 0  9993,2 49155  69.9987  27.1786 0002732 260.8676  99.2173 14.96812254 47659,6954.89,96.204,578.655,574.855,0.0
